#aV2020  8 21  0  0  0.00000000     288 DD+AD WGS84 FIT  NGA
## 2119 432000.00000000   300.00000000 59082 0.0000000000000
+   31     1  2  3  4  5  6  7  8  9 10 11 12 13 15 16 17 18
+         19 20 21 22 23 24 25 26 27 28 29 30 31 32  0  0  0
+          0  0  0  0  0  0  0  0  0  0  0  0  0  0  0  0  0
+          0  0  0  0  0  0  0  0  0  0  0  0  0  0  0  0  0
+          0  0  0  0  0  0  0  0  0  0  0  0  0  0  0  0  0
++         2  2  2  2  2  2  2  2  2  2  2  2  2  2  2  2  2
++         2  2  2  2  2  2  2  2  2  2  2  2  2  2  0  0  0
++         0  0  0  0  0  0  0  0  0  0  0  0  0  0  0  0  0
++         0  0  0  0  0  0  0  0  0  0  0  0  0  0  0  0  0
++         0  0  0  0  0  0  0  0  0  0  0  0  0  0  0  0  0
%c cc cc ccc ccc cccc cccc cccc cccc ccccc ccccc ccccc ccccc
%c cc cc ccc ccc cccc cccc cccc cccc ccccc ccccc ccccc ccccc
%f  0.0000000  0.000000000  0.00000000000  0.000000000000000
%f  0.0000000  0.000000000  0.00000000000  0.000000000000000
%i    0    0    0    0      0      0      0      0         0
%i    0    0    0    0      0      0      0      0         0
/*      NGA, ST. LOUIS,MO.                                  
/*   EPHEMERIS COMPUTED FROM 2 DAYS OF DATA                 
/*   EPOCHA v5 SMOOTHER                                     
/*   G1762 IERS2010 SATAF SATAPC                            
*  2020  8 21  0 15  0.00000000
P  1 -14154.106035   4144.226629  21836.449864     34.734751                    
V  1  -4606.855679 -27883.427725   2599.625568      0.015616                    
P  2  13807.520330  17876.926613 -13360.974683   -505.084770                    
V  2   1778.707179  18098.364002  24837.200920     -0.054030                    
P  3 -22600.698094  11206.224796   8068.505132   -275.927329                    
V  3   6438.612102  -8519.498486  29687.600472     -0.109905                    
P  4 -21884.821471   2154.489600 -14910.638685   -126.824890                    
V  4 -16683.453642  -9190.975826  23108.645672     -0.043362                    
P  5  15406.118147   6257.064019 -20899.100464    -19.278595                    
V  5 -19267.467854  17739.810481  -8764.499261     -0.008409                    
P  6   6028.510185  25693.084724  -2746.572334   -317.731295                    
V  6  -1621.228365   3855.652158  31958.266065     -0.040466                    
P  7  -7015.400781  20900.367209 -14126.159380   -354.713583                    
V  7  -5508.509545 -18088.907995 -23977.314733     -0.084021                    
P  8 -25614.102063  -5536.065799   5126.527087    -45.158375                    
V  8  -5289.250670  -4315.594855 -30896.883764     -0.012962                    
P  9 -12047.477537  11364.921503 -20820.259086   -273.575755                    
V  9 -24477.956061  -9759.598125   8843.879799     -0.059697                    
P 10   5631.641458 -19671.291033  16885.602829   -433.133798                    
V 10  17666.407012 -12135.108059 -20373.264922     -0.101810                    
P 11 -19383.114998  -4194.889037  17028.330643   -187.039031                    
V 11 -11265.263523 -20083.397832 -17631.839048      0.106012                    
P 12  23194.750514  -9053.543571   8793.779332     77.919409                    
V 12  -8115.896580   8486.140513  29510.027542     -0.049692                    
P 13  22812.107357  13614.904541  -1794.636158     37.686320                    
V 13  -3043.254362   1187.541437 -31740.611856      0.034972                    
P 15  26039.775090   2824.751351   5154.900160   -209.230517                    
V 15   5820.567815   5077.063835 -29873.690336      0.025872                    
P 16 -16891.168827  -5047.147080 -20218.558118   -198.368084                    
V 16  20355.297038 -14555.882547 -13081.243474     -0.049596                    
P 17   5603.358683  17081.744288  19992.413513    314.039943                    
V 17 -22585.250989  -9233.002686  14487.954287      0.055742                    
P 18   6809.048327 -21538.962718 -13952.444603    274.130498                    
V 18   4491.811923  17251.366502 -24500.268800      0.079556                    
P 19  13047.521344  17605.835701  14754.370384   -115.746393                    
V 19 -17875.152007  -7175.445125  23836.103695      0.050622                    
P 20  13989.306230 -21565.079916   6091.086424    526.980335                    
V 20   8104.003264  -3263.187528 -30018.601653     -0.001049                    
P 21 -11780.096759 -22541.332091   8969.253690     37.989708                    
V 21    -24.980622 -10538.147814 -28650.647448      0.043352                    
P 22 -21372.337509   5324.328499  14939.658165   -762.319853                    
V 22  11545.419745 -15036.638765  22323.060497      0.034206                    
P 23  14173.042118 -20508.468469   9121.888653     45.538140                    
V 23  10495.912252  -5619.151963 -28851.433719      0.108901                    
P 24  15665.519721  -1576.975542  21203.014936    -17.428914                    
V 24   5992.251048  26820.682882  -2036.379410     -0.005297                    
P 25  19966.458956 -17274.299919  -1161.701602     38.046060                    
V 25   2772.346689   1505.646178  31963.512069      0.049415                    
P 26  -5638.111652 -15229.331149 -21013.693065    264.856701                    
V 26  20630.725509 -16976.894268   7005.506717      0.065876                    
P 27 -22811.553691 -12782.006066  -5735.854939   -376.096631                    
V 27   7232.239474    711.107122 -30817.629303     -0.092409                    
P 28  -5711.239584  18850.278406  18471.347943    687.426350                    
V 28 -19022.116305  11464.455695 -18013.790661     -0.039527                    
P 29  15886.304176  -7293.173603 -20054.985321   -177.191981                    
V 29  22602.947945  11371.820394  13755.490119     -0.082970                    
P 30   -383.661169  25946.252855  -5037.651380   -286.207904                    
V 30  -4449.725003  -6003.249972 -30488.396074     -0.073779                    
P 31  -6795.070934 -24966.522423  -4833.433186    -63.491640                    
V 31   2407.954802  -6544.484309  31157.366200     -0.024396                    
P 32  -7392.015481 -17088.819191  19084.979235    335.479499                    
V 32  22961.179213   7143.700674  15210.462106      0.053219                    
EOF
